NORAD_CAT_ID,OBJECT_NAME,OBJECT_TYPE,EPOCH,MEAN_MOTION,ECCENTRICITY,INCLINATION,RA_OF_ASC_NODE,ARG_OF_PERICENTER,MEAN_ANOMALY,BSTAR,MEAN_MOTION_DOT,MEAN_MOTION_DDOT,TLE_LINE0,TLE_LINE1,TLE_LINE2,SEMIMAJOR_AXIS,PERIOD,APOGEE,PERIGEE,DECAYED
51794.0,STARLINK-3573,PAYLOAD,2023-05-09 05:29:22,15.08841471,0.0001111,53.2165,317.4871,107.662,252.4493,0.00022346,3.27e-05,0.0,0 STARLINK-3573,1 51794U 22017AC  23129.22872762  .00003270  00000-0  22346-3 0  9993,2 51794  53.2165 317.4871 0001111 107.6620 252.4493 15.08841471 67604,6917.876,95.437,540.509,538.972,0.0
51794.0,STARLINK-3573,PAYLOAD,2023-05-10 05:20:09,15.08845361,0.000108,53.2166,313.0248,86.3829,273.7286,0.00021147,3.08e-05,0.0,0 STARLINK-3573,1 51794U 22017AC  23130.22232731  .00003080  00000-0  21147-3 0  9998,2 51794  53.2166 313.0248 0001080  86.3829 273.7286 15.08845361 67758,6917.864,95.437,540.476,538.982,0.0
51794.0,STARLINK-3573,PAYLOAD,2023-05-10 19:38:37,15.08844098,0.0001096,53.2164,310.35,87.9021,272.2097,0.00015036,2.106e-05,0.0,0 STARLINK-3573,1 51794U 22017AC  23130.81848911  .00002106  00000-0  15036-3 0  9994,2 51794  53.2164 310.3500 0001096  87.9021 272.2097 15.08844098 67845,6917.868,95.437,540.491,538.975,0.0
51794.0,STARLINK-3573,PAYLOAD,2023-05-11 05:10:56,15.08844823,0.0001127,53.2168,308.5646,84.3489,275.7632,9.5572e-05,1.234e-05,0.0,0 STARLINK-3573,1 51794U 22017AC  23131.21592807  .00001234  00000-0  95572-4 0  9994,2 51794  53.2168 308.5646 0001127  84.3489 275.7632 15.08844823 67909,6917.866,95.437,540.51,538.951,0.0
51794.0,STARLINK-3573,PAYLOAD,2023-05-11 17:54:01,15.08842524,9.74e-05,53.216,306.1864,88.589,271.5214,0.00014484,2.018e-05,0.0,0 STARLINK-3573,1 51794U 22017AC  23131.74584953  .00002018  00000-0  14484-3 0  9998,2 51794  53.2160 306.1864 0000974  88.5890 271.5214 15.08842524 67982,6917.873,95.437,540.411,539.064,0.0
51794.0,STARLINK-3573,PAYLOAD,2023-05-12 05:01:43,15.0884414,0.0001045,53.2159,304.1045,82.5214,277.5897,0.00010043,1.311e-05,0.0,0 STARLINK-3573,1 51794U 22017AC  23132.20952844  .00001311  00000-0  10043-3 0  9990,2 51794  53.2159 304.1045 0001045  82.5214 277.5897 15.08844140 68051,6917.868,95.437,540.456,539.01,0.0
51794.0,STARLINK-3573,PAYLOAD,2023-05-12 17:44:48,15.08840592,0.0001026,53.2167,301.7249,93.3163,266.7946,3.5149e-05,2.72e-06,0.0,0 STARLINK-3573,1 51794U 22017AC  23132.73945237  .00000272  00000-0  35149-4 0  9996,2 51794  53.2167 301.7249 0001026  93.3163 266.7946 15.08840592 68132,6917.879,95.438,540.453,539.034,0.0
51794.0,STARLINK-3573,PAYLOAD,2023-05-13 17:35:35,15.08842264,9.62e-05,53.2158,297.2671,76.2521,283.8578,0.00011812,1.593e-05,0.0,0 STARLINK-3573,1 51794U 22017AC  23133.73304999  .00001593  00000-0  11812-3 0  9998,2 51794  53.2158 297.2671 0000962  76.2521 283.8578 15.08842264 68281,6917.873,95.437,540.404,539.073,0.0
51794.0,STARLINK-3573,PAYLOAD,2023-05-14 14:15:36,15.08833005,9.44e-05,53.2167,293.3984,89.0681,271.042,8.6176e-05,1.084e-05,0.0,0 STARLINK-3573,1 51794U 22017AC  23134.59417727  .00001084  00000-0  86176-4 0  9998,2 51794  53.2167 293.3984 0000944  89.0681 271.0420 15.08833005 68417,6917.902,95.438,540.42,539.114,0.0
51794.0,STARLINK-3573,PAYLOAD,2023-05-14 17:26:23,15.08835605,9.32e-05,53.2169,292.8037,88.6171,271.4927,0.00010322,1.355e-05,0.0,0 STARLINK-3573,1 51794U 22017AC  23134.72665538  .00001355  00000-0  10322-3 0  9998,2 51794  53.2169 292.8037 0000932  88.6171 271.4927 15.08835605 68434,6917.894,95.438,540.404,539.114,0.0
51794.0,STARLINK-3573,PAYLOAD,2023-05-14 20:37:09,15.08833453,9.52e-05,53.2168,292.2088,95.1855,264.9246,0.00019162,2.763e-05,0.0,0 STARLINK-3573,1 51794U 22017AC  23134.85913437  .00002763  00000-0  19162-3 0  9991,2 51794  53.2168 292.2088 0000952  95.1855 264.9246 15.08833453 68459,6917.9,95.438,540.424,539.107,0.0
51794.0,STARLINK-3573,PAYLOAD,2023-05-15 10:55:37,15.08845771,9.79e-05,53.2176,289.5309,77.9893,282.1209,-1.8257e-05,-5.78e-06,0.0,0 STARLINK-3573,1 51794U 22017AC  23135.45529437 -.00000578  00000-0 -18257-4 0  9990,2 51794  53.2176 289.5309 0000979  77.9893 282.1209 15.08845771 68549,6917.863,95.437,540.405,539.05,0.0
51794.0,STARLINK-3573,PAYLOAD,2023-05-15 17:17:09,15.08853703,0.0001039,53.2171,288.3436,74.379,285.7317,5.7031e-05,6.2e-06,0.0,0 STARLINK-3573,1 51794U 22017AC  23135.72024629  .00000620  00000-0  57031-4 0  9992,2 51794  53.2171 288.3436 0001039  74.3790 285.7317 15.08853703 68584,6917.839,95.437,540.422,538.985,0.0
51794.0,STARLINK-3573,PAYLOAD,2023-05-16 10:46:24,15.08835267,7.82e-05,53.2175,285.0707,54.5045,305.602,2.9077e-05,1.75e-06,0.0,0 STARLINK-3573,1 51794U 22017AC  23136.44890027  .00000175  00000-0  29077-4 0  9999,2 51794  53.2175 285.0707 0000782  54.5045 305.6020 15.08835267 68690,6917.895,95.438,540.301,539.219,0.0
51794.0,STARLINK-3573,PAYLOAD,2023-05-16 12:21:47,15.08836361,9.82e-05,53.2162,284.7781,91.7892,268.3212,4.2238e-05,3.84e-06,0.0,0 STARLINK-3573,1 51794U 22017AC  23136.51513849  .00000384  00000-0  42238-4 0  9997,2 51794  53.2162 284.7781 0000982  91.7892 268.3212 15.08836361 68705,6917.892,95.438,540.436,539.077,0.0
51794.0,STARLINK-3573,PAYLOAD,2023-05-16 17:07:57,15.08835746,0.0001004,53.2165,283.8854,93.289,266.8217,1.0689e-05,-1.18e-06,0.0,0 STARLINK-3573,1 51794U 22017AC  23136.71386005 -.00000118  00000-0  10689-4 0  9992,2 51794  53.2165 283.8854 0001004  93.2890 266.8217 15.08835746 68737,6917.893,95.438,540.453,539.064,0.0
51794.0,STARLINK-3573,PAYLOAD,2023-05-17 16:58:44,15.08843008,0.0001177,53.2166,279.4236,109.0766,251.0354,-1.055e-05,-4.56e-06,0.0,0 STARLINK-3573,1 51794U 22017AC  23137.70745748 -.00000456  00000-0 -10550-4 0  9998,2 51794  53.2166 279.4236 0001177 109.0766 251.0354 15.08843008 68886,6917.871,95.437,540.55,538.922,0.0
51794.0,STARLINK-3573,PAYLOAD,2023-05-18 12:03:22,15.0883174,0.0001038,53.2167,275.8549,92.1058,268.0053,3.5758e-05,2.81e-06,0.0,0 STARLINK-3573,1 51794U 22017AC  23138.50234594  .00000281  00000-0  35758-4 0  9990,2 51794  53.2167 275.8549 0001038  92.1058 268.0053 15.08831740 69005,6917.906,95.438,540.489,539.053,0.0
51794.0,STARLINK-3573,PAYLOAD,2023-05-18 18:24:54,15.08838729,0.0001033,53.2169,274.6648,90.5598,269.5512,7.8858e-05,9.67e-06,0.0,0 STARLINK-3573,1 51794U 22017AC  23138.76730118  .00000967  00000-0  78858-4 0  9990,2 51794  53.2169 274.6648 0001033  90.5598 269.5512 15.08838729 69044,6917.884,95.438,540.464,539.035,0.0
51794.0,STARLINK-3573,PAYLOAD,2023-05-19 02:21:50,15.08839516,0.0001063,53.2168,273.1781,89.3299,270.7815,8.2243e-05,1.021e-05,0.0,0 STARLINK-3573,1 51794U 22017AC  23139.09850093  .00001021  00000-0  82243-4 0  9997,2 51794  53.2168 273.1781 0001063  89.3299 270.7815 15.08839516 69092,6917.882,95.438,540.482,539.011,0.0
51794.0,STARLINK-3573,PAYLOAD,2023-05-19 08:43:23,15.08829829,0.0001107,53.2169,271.9882,87.513,272.5989,0.00024406,3.597e-05,0.0,0 STARLINK-3573,1 51794U 22017AC  23139.36346349  .00003597  00000-0  24406-3 0  9997,2 51794  53.2169 271.9882 0001107  87.5130 272.5989 15.08829829 69137,6917.911,95.438,540.542,539.011,0.0
51794.0,STARLINK-3573,PAYLOAD,2023-05-20 14:55:41,15.08849879,0.0001054,53.218,266.3377,94.7923,265.319,0.00011135,1.485e-05,0.0,0 STARLINK-3573,1 51794U 22017AC  23140.62201256  .00001485  00000-0  11135-3 0  9994,2 51794  53.2180 266.3377 0001054  94.7923 265.3190 15.08849879 69320,6917.85,95.437,540.444,538.986,0.0
51794.0,STARLINK-3573,PAYLOAD,2023-05-21 11:35:43,15.088406,0.000126,53.2185,262.4737,90.9333,269.1804,-8.8902e-06,-4.29e-06,0.0,0 STARLINK-3573,1 51794U 22017AC  23141.48314207 -.00000429  00000-0 -88902-5 0  9997,2 51794  53.2185 262.4737 0001260  90.9333 269.1804 15.08840600 69455,6917.879,95.438,540.615,538.872,0.0
51794.0,STARLINK-3573,PAYLOAD,2023-05-21 14:46:29,15.08837717,0.0001178,53.2172,261.8761,102.7475,257.3649,-1.4391e-05,-5.17e-06,0.0,0 STARLINK-3573,1 51794U 22017AC  23141.61562313 -.00000517  00000-0 -14391-4 0  9993,2 51794  53.2172 261.8761 0001178 102.7475 257.3649 15.08837717 69471,6917.887,95.438,540.567,538.937,0.0
51794.0,STARLINK-3573,PAYLOAD,2023-05-22 11:26:30,15.08837886,0.0001209,53.2179,258.0137,91.882,268.2311,6.2897e-06,-1.88e-06,0.0,0 STARLINK-3573,1 51794U 22017AC  23142.47674512 -.00000188  00000-0  62897-5 0  9991,2 51794  53.2179 258.0137 0001209  91.8820 268.2311 15.08837886 69609,6917.887,95.438,540.588,538.915,0.0
51794.0,STARLINK-3573,PAYLOAD,2023-05-22 14:37:16,15.08847112,0.0001176,53.2178,257.4196,106.7285,253.3836,-3.5603e-05,-8.55e-06,0.0,0 STARLINK-3573,1 51794U 22017AC  23142.60922026 -.00000855  00000-0 -35603-4 0  9998,2 51794  53.2178 257.4196 0001176 106.7285 253.3836 15.08847112 69622,6917.859,95.437,540.537,538.91,0.0
51794.0,STARLINK-3573,PAYLOAD,2023-05-23 11:17:18,15.08831721,0.0001218,53.218,253.5532,103.995,256.1178,9.8919e-05,1.286e-05,0.0,0 STARLINK-3573,1 51794U 22017AC  23143.47034969  .00001286  00000-0  98919-4 0  9990,2 51794  53.2180 253.5532 0001218 103.9950 256.1178 15.08831721 69754,6917.906,95.438,540.613,538.928,0.0
51794.0,STARLINK-3573,PAYLOAD,2023-05-23 12:52:41,15.08832266,0.0001248,53.218,253.256,102.4849,257.6283,0.0001161,1.56e-05,0.0,0 STARLINK-3573,1 51794U 22017AC  23143.53658928  .00001560  00000-0  11610-3 0  9991,2 51794  53.2180 253.2560 0001248 102.4849 257.6283 15.08832266 69765,6917.904,95.438,540.632,538.906,0.0
51794.0,STARLINK-3573,PAYLOAD,2023-05-24 15:54:14,15.08842918,0.0001222,53.2179,248.2008,101.8154,258.2975,0.00010032,1.309e-05,0.0,0 STARLINK-3573,1 51794U 22017AC  23144.66266609  .00001309  00000-0  10032-3 0  9995,2 51794  53.2179 248.2008 0001222 101.8154 258.2975 15.08842918 69937,6917.871,95.437,540.582,538.891,0.0
51794.0,STARLINK-3573,PAYLOAD,2023-05-25 14:09:38,15.08829529,0.0001262,53.2179,244.0358,97.1979,262.9157,0.00019721,2.851e-05,0.0,0 STARLINK-3573,1 51794U 22017AC  23145.59003359  .00002851  00000-0  19721-3 0  9996,2 51794  53.2179 244.0358 0001262  97.1979 262.9157 15.08829529 70079,6917.912,95.438,540.65,538.904,0.0
